ONEWEB-0020             
1 45133U 20008C   24045.52156332  .00000318  00000+0  87381-3 0  9999
2 45133  87.8921 205.8357 0001346  95.1975 264.9306 13.10370314196541
ONEWEB-0021             
1 45134U 20008D   24045.45979961 -.00000409  00000+0 -12082-2 0  9991
2 45134  87.8926 205.8576 0001551  97.6351 262.4952 13.10370553196841
ONEWEB-0022             
1 45135U 20008E   24045.48305875 -.00000258  00000+0 -77625-3 0  9999
2 45135  87.8932 205.8707 0001239  87.1730 272.9539 13.10399564196540
ONEWEB-0023             
1 45136U 20008F   24045.47278378 -.00000821  00000+0 -23896-2 0  9992
2 45136  87.8931 205.8467 0001475 116.1512 243.9767 13.10370182196272
ONEWEB-0024             
1 45137U 20008G   24045.51992960  .00000363  00000+0  10031-2 0  9994
2 45137  87.8916 205.8376 0001613  94.8280 265.3032 13.10369649196441
ONEWEB-0026             
1 45139U 20008J   24045.47301840 -.00113478  00000+0 -32550+0 0  9993
2 45139  87.9055 190.7595 0002316 107.2180 252.9202 13.11133921199214
ONEWEB-0028             
1 45140U 20008K   24045.42846034 -.00000486  00000+0 -14069-2 0  9991
2 45140  87.9001 190.8114 0002173 110.4607 249.6755 13.11417103196722
